BRO-1                   
1 44495U 19054A   26193.88343484  .01063311  72255-3  87739-3 0  9994
2 44495  44.9818 133.2306 0009026 178.3446 181.7500 16.13181719383857
BRO-5                   
1 51061U 22002CF  26193.84782398  .00022796  00000+0  42527-3 0  9997
2 51061  97.2994 267.7673 0005138 212.3995 147.6941 15.48790963250226
BRO-6                   
1 52422U 22047AE  26193.80781118  .00032426  00000+0  53084-3 0  9994
2 52422  97.3397 285.3874 0002907 324.4847  35.6212 15.52435053235127
BRO-8                   
1 55011U 23001C   26193.80945766  .00025607  00000+0  44723-3 0  9996
2 55011  97.3195 259.3887 0005122  48.5436 311.6255 15.50649919196176
BRO-11                  
1 58264U 23174J   26193.86151310  .00002642  00000+0  10055-3 0  9995
2 58264  97.3902 270.4721 0011941 114.8075 245.4408 15.27577701148677
BRO-13                  
1 59107U 24043K   26193.83293090  .00000776  00000+0  73306-4 0  9992
2 59107  97.8520 324.9373 0007554 271.7211  88.3145 14.96646882128451
BRO-12                  
1 59108U 24043L   26193.82485838  .00000521  00000+0  50619-4 0  9995
2 59108  97.8506 325.0981 0007094 266.1731  93.8680 14.96890805128470
BRO-14                  
1 60551U 24149CM  26193.74242294  .00000702  00000+0  67291-4 0  9999
2 60551  97.6861 269.0607 0006934  24.7514 335.4039 14.96231446103811
BRO-15                  
1 60553U 24149CP  26190.44813664  .00000727  00000+0  69494-4 0  9994
2 60553  97.6798 265.4070 0008525  23.7668 336.3946 14.96220766103330
BRO-16                  
1 62654U 25009AX  26193.68529630  .00002233  00000+0  94809-4 0  9992
2 62654  97.4059 273.8571 0001901 158.7568 201.3749 15.24117857 82684
BRO-18                  
1 64550U 25135Y   26193.82501920  .00002045  00000+0  92241-4 0  9996
2 64550  97.4651 308.6604 0002359 118.1407 242.0068 15.22160796 58770
BRO-17                  
1 66672U 25276G   26193.75739374  .00001956  00000+0  99052-4 0  9994
2 66672  97.4188 266.3724 0005043 270.2299  89.8357 15.18146983 34271
BRO-20                  
1 66674U 25276J   26193.73367997  .00001683  00000+0  85286-4 0  9993
2 66674  97.4165 266.3373 0004671 274.6139  85.4562 15.18317815 34279
BRO-19                  
1 68422U 26067G   26193.80816522  .00002072  00000+0  10233-3 0  9998
2 68422  97.4486 151.9012 0002527 112.7564 247.3937 15.18979756 15833
BRO-21                  
1 69007U 26100AD  26193.70786789  .00001371  00000+0  63783-4 0  9996
2 69007  97.4019  91.1842 0007090 338.7292  21.3648 15.21612448 10682
BRO-22                  
1 69504U 26132C   26193.77249806  .00000640  00000+0  56433-4 0  9996
2 69504  97.6831 257.1246 0016300 189.5244 170.5673 14.99801017  4610
