{"fetched_at":"2026-07-13T07:48:08.718Z","source":"https://celestrak.org/NORAD/elements/gp.php?NAME=BRO&FORMAT=JSON","constellation":"unseenlabs","records":[{"OBJECT_NAME":"BRO-1","OBJECT_ID":"2019-054A","EPOCH":"2026-07-12T21:12:08.770176","CLASSIFICATION_TYPE":"U","MEAN_MOTION":16.13181719,"ECCENTRICITY":0.0009026,"INCLINATION":44.9818,"RA_OF_ASC_NODE":133.2306,"ARG_OF_PERICENTER":178.3446,"MEAN_ANOMALY":181.75,"EPHEMERIS_TYPE":0,"NORAD_CAT_ID":44495,"ELEMENT_SET_NO":999,"REV_AT_EPOCH":38385,"BSTAR":0.00087739,"MEAN_MOTION_DOT":0.01063311,"MEAN_MOTION_DDOT":0.00072255},{"OBJECT_NAME":"BRO-5","OBJECT_ID":"2022-002CF","EPOCH":"2026-07-12T20:20:51.991872","CLASSIFICATION_TYPE":"U","MEAN_MOTION":15.48790963,"ECCENTRICITY":0.0005138,"INCLINATION":97.2994,"RA_OF_ASC_NODE":267.7673,"ARG_OF_PERICENTER":212.3995,"MEAN_ANOMALY":147.6941,"EPHEMERIS_TYPE":0,"NORAD_CAT_ID":51061,"ELEMENT_SET_NO":999,"REV_AT_EPOCH":25022,"BSTAR":0.00042527,"MEAN_MOTION_DOT":0.00022796,"MEAN_MOTION_DDOT":0},{"OBJECT_NAME":"BRO-6","OBJECT_ID":"2022-047AE","EPOCH":"2026-07-12T19:23:14.885952","CLASSIFICATION_TYPE":"U","MEAN_MOTION":15.52435053,"ECCENTRICITY":0.0002907,"INCLINATION":97.3397,"RA_OF_ASC_NODE":285.3874,"ARG_OF_PERICENTER":324.4847,"MEAN_ANOMALY":35.6212,"EPHEMERIS_TYPE":0,"NORAD_CAT_ID":52422,"ELEMENT_SET_NO":999,"REV_AT_EPOCH":23512,"BSTAR":0.00053084,"MEAN_MOTION_DOT":0.00032426,"MEAN_MOTION_DDOT":0},{"OBJECT_NAME":"BRO-8","OBJECT_ID":"2023-001C","EPOCH":"2026-07-12T19:25:37.141824","CLASSIFICATION_TYPE":"U","MEAN_MOTION":15.50649919,"ECCENTRICITY":0.0005122,"INCLINATION":97.3195,"RA_OF_ASC_NODE":259.3887,"ARG_OF_PERICENTER":48.5436,"MEAN_ANOMALY":311.6255,"EPHEMERIS_TYPE":0,"NORAD_CAT_ID":55011,"ELEMENT_SET_NO":999,"REV_AT_EPOCH":19617,"BSTAR":0.00044723,"MEAN_MOTION_DOT":0.00025607,"MEAN_MOTION_DDOT":0},{"OBJECT_NAME":"BRO-11","OBJECT_ID":"2023-174J","EPOCH":"2026-07-12T20:40:34.731840","CLASSIFICATION_TYPE":"U","MEAN_MOTION":15.27577701,"ECCENTRICITY":0.0011941,"INCLINATION":97.3902,"RA_OF_ASC_NODE":270.4721,"ARG_OF_PERICENTER":114.8075,"MEAN_ANOMALY":245.4408,"EPHEMERIS_TYPE":0,"NORAD_CAT_ID":58264,"ELEMENT_SET_NO":999,"REV_AT_EPOCH":14867,"BSTAR":0.00010055,"MEAN_MOTION_DOT":0.00002642,"MEAN_MOTION_DDOT":0},{"OBJECT_NAME":"BRO-13","OBJECT_ID":"2024-043K","EPOCH":"2026-07-12T19:59:25.229760","CLASSIFICATION_TYPE":"U","MEAN_MOTION":14.96646882,"ECCENTRICITY":0.0007554,"INCLINATION":97.852,"RA_OF_ASC_NODE":324.9373,"ARG_OF_PERICENTER":271.7211,"MEAN_ANOMALY":88.3145,"EPHEMERIS_TYPE":0,"NORAD_CAT_ID":59107,"ELEMENT_SET_NO":999,"REV_AT_EPOCH":12845,"BSTAR":0.000073306,"MEAN_MOTION_DOT":0.00000776,"MEAN_MOTION_DDOT":0},{"OBJECT_NAME":"BRO-12","OBJECT_ID":"2024-043L","EPOCH":"2026-07-12T19:47:47.764032","CLASSIFICATION_TYPE":"U","MEAN_MOTION":14.96890805,"ECCENTRICITY":0.0007094,"INCLINATION":97.8506,"RA_OF_ASC_NODE":325.0981,"ARG_OF_PERICENTER":266.1731,"MEAN_ANOMALY":93.868,"EPHEMERIS_TYPE":0,"NORAD_CAT_ID":59108,"ELEMENT_SET_NO":999,"REV_AT_EPOCH":12847,"BSTAR":0.000050619,"MEAN_MOTION_DOT":0.00000521,"MEAN_MOTION_DDOT":0},{"OBJECT_NAME":"BRO-14","OBJECT_ID":"2024-149CM","EPOCH":"2026-07-12T17:49:05.342016","CLASSIFICATION_TYPE":"U","MEAN_MOTION":14.96231446,"ECCENTRICITY":0.0006934,"INCLINATION":97.6861,"RA_OF_ASC_NODE":269.0607,"ARG_OF_PERICENTER":24.7514,"MEAN_ANOMALY":335.4039,"EPHEMERIS_TYPE":0,"NORAD_CAT_ID":60551,"ELEMENT_SET_NO":999,"REV_AT_EPOCH":10381,"BSTAR":0.000067291,"MEAN_MOTION_DOT":0.00000702,"MEAN_MOTION_DDOT":0},{"OBJECT_NAME":"BRO-15","OBJECT_ID":"2024-149CP","EPOCH":"2026-07-09T10:45:19.005696","CLASSIFICATION_TYPE":"U","MEAN_MOTION":14.96220766,"ECCENTRICITY":0.00085255,"INCLINATION":97.6798,"RA_OF_ASC_NODE":265.407,"ARG_OF_PERICENTER":23.7668,"MEAN_ANOMALY":336.3946,"EPHEMERIS_TYPE":0,"NORAD_CAT_ID":60553,"ELEMENT_SET_NO":999,"REV_AT_EPOCH":10333,"BSTAR":0.000069493641,"MEAN_MOTION_DOT":0.00000727,"MEAN_MOTION_DDOT":0},{"OBJECT_NAME":"BRO-16","OBJECT_ID":"2025-009AX","EPOCH":"2026-07-12T16:26:49.600320","CLASSIFICATION_TYPE":"U","MEAN_MOTION":15.24117857,"ECCENTRICITY":0.0001901,"INCLINATION":97.4059,"RA_OF_ASC_NODE":273.8571,"ARG_OF_PERICENTER":158.7568,"MEAN_ANOMALY":201.3749,"EPHEMERIS_TYPE":0,"NORAD_CAT_ID":62654,"ELEMENT_SET_NO":999,"REV_AT_EPOCH":8268,"BSTAR":0.000094809,"MEAN_MOTION_DOT":0.00002233,"MEAN_MOTION_DDOT":0},{"OBJECT_NAME":"BRO-18","OBJECT_ID":"2025-135Y","EPOCH":"2026-07-12T19:48:01.658880","CLASSIFICATION_TYPE":"U","MEAN_MOTION":15.22160796,"ECCENTRICITY":0.0002359,"INCLINATION":97.4651,"RA_OF_ASC_NODE":308.6604,"ARG_OF_PERICENTER":118.1407,"MEAN_ANOMALY":242.0068,"EPHEMERIS_TYPE":0,"NORAD_CAT_ID":64550,"ELEMENT_SET_NO":999,"REV_AT_EPOCH":5877,"BSTAR":0.000092241,"MEAN_MOTION_DOT":0.00002045,"MEAN_MOTION_DDOT":0},{"OBJECT_NAME":"BRO-17","OBJECT_ID":"2025-276G","EPOCH":"2026-07-12T18:10:38.819136","CLASSIFICATION_TYPE":"U","MEAN_MOTION":15.18146983,"ECCENTRICITY":0.0005043,"INCLINATION":97.4188,"RA_OF_ASC_NODE":266.3724,"ARG_OF_PERICENTER":270.2299,"MEAN_ANOMALY":89.8357,"EPHEMERIS_TYPE":0,"NORAD_CAT_ID":66672,"ELEMENT_SET_NO":999,"REV_AT_EPOCH":3427,"BSTAR":0.000099052,"MEAN_MOTION_DOT":0.00001956,"MEAN_MOTION_DDOT":0},{"OBJECT_NAME":"BRO-20","OBJECT_ID":"2025-276J","EPOCH":"2026-07-12T17:36:29.949408","CLASSIFICATION_TYPE":"U","MEAN_MOTION":15.18317815,"ECCENTRICITY":0.0004671,"INCLINATION":97.4165,"RA_OF_ASC_NODE":266.3373,"ARG_OF_PERICENTER":274.6139,"MEAN_ANOMALY":85.4562,"EPHEMERIS_TYPE":0,"NORAD_CAT_ID":66674,"ELEMENT_SET_NO":999,"REV_AT_EPOCH":3427,"BSTAR":0.000085286,"MEAN_MOTION_DOT":0.00001683,"MEAN_MOTION_DDOT":0},{"OBJECT_NAME":"BRO-19","OBJECT_ID":"2026-067G","EPOCH":"2026-07-12T19:23:45.475008","CLASSIFICATION_TYPE":"U","MEAN_MOTION":15.18979756,"ECCENTRICITY":0.0002527,"INCLINATION":97.4486,"RA_OF_ASC_NODE":151.9012,"ARG_OF_PERICENTER":112.7564,"MEAN_ANOMALY":247.3937,"EPHEMERIS_TYPE":0,"NORAD_CAT_ID":68422,"ELEMENT_SET_NO":999,"REV_AT_EPOCH":1583,"BSTAR":0.00010233,"MEAN_MOTION_DOT":0.00002072,"MEAN_MOTION_DDOT":0},{"OBJECT_NAME":"BRO-21","OBJECT_ID":"2026-100AD","EPOCH":"2026-07-12T16:59:19.785696","CLASSIFICATION_TYPE":"U","MEAN_MOTION":15.21612448,"ECCENTRICITY":0.000709,"INCLINATION":97.4019,"RA_OF_ASC_NODE":91.1842,"ARG_OF_PERICENTER":338.7292,"MEAN_ANOMALY":21.3648,"EPHEMERIS_TYPE":0,"NORAD_CAT_ID":69007,"ELEMENT_SET_NO":999,"REV_AT_EPOCH":1068,"BSTAR":0.000063783,"MEAN_MOTION_DOT":0.00001371,"MEAN_MOTION_DDOT":0},{"OBJECT_NAME":"BRO-22","OBJECT_ID":"2026-132C","EPOCH":"2026-07-12T18:32:23.832384","CLASSIFICATION_TYPE":"U","MEAN_MOTION":14.99801017,"ECCENTRICITY":0.00163,"INCLINATION":97.6831,"RA_OF_ASC_NODE":257.1246,"ARG_OF_PERICENTER":189.5244,"MEAN_ANOMALY":170.5673,"EPHEMERIS_TYPE":0,"NORAD_CAT_ID":69504,"ELEMENT_SET_NO":999,"REV_AT_EPOCH":461,"BSTAR":0.000056433,"MEAN_MOTION_DOT":0.0000064,"MEAN_MOTION_DDOT":0}]}
